ONEWEB-0434             
1 51631U 22012K   25241.11987700  .00000657  00000+0  18444-2 0  9990
2 51631  87.8760  94.5456 0002339  87.0202 273.1193 13.10373251171071
ONEWEB-0435             
1 51632U 22012L   25241.12816348  .00000662  00000+0  18609-2 0  9990
2 51632  87.8755  94.5359 0001637  68.7972 291.3330 13.10372256171066
ONEWEB-0436             
1 51633U 22012M   25241.23764252 -.00000118  00000+0 -33643-3 0  9993
2 51633  87.9027  63.9217 0001585  83.7016 276.4296 13.17649168175235
ONEWEB-0438             
1 51634U 22012N   25241.11154915  .00000414  00000+0  11494-2 0  9996
2 51634  87.8761  94.5401 0001863  84.5784 275.5556 13.10376895171091
ONEWEB-0439             
1 51635U 22012P   25241.03851484  .00000552  00000+0  15456-2 0  9998
2 51635  87.8761  94.5430 0001741  79.9977 280.1346 13.10376104171060
ONEWEB-0442             
1 51636U 22012Q   25241.07817641 -.00000031  00000+0 -11354-3 0  9998
2 51636  87.9024  64.0074 0002195 102.7411 257.3966 13.17647564175204
ONEWEB-0443             
1 51637U 22012R   25241.24945267  .00000082  00000+0  17732-3 0  9994
2 51637  87.9021  63.9814 0002051  85.9663 274.1703 13.17648261175272
ONEWEB-0444             
1 51638U 22012S   25241.10492401  .00000042  00000+0  82910-4 0  9994
2 51638  87.8760  94.5303 0001745  77.1614 282.9709 13.10375389171082
ONEWEB-0445             
1 51639U 22012T   25241.12651134  .00000639  00000+0  17956-2 0  9995
2 51639  87.8758  94.4781 0001655  88.8129 271.3188 13.10370385171094
ONEWEB-0446             
1 51640U 22012U   25241.10324208 -.00000164  00000+0 -50650-3 0  9998
2 51640  87.8760  94.5458 0001537  88.5868 271.5435 13.10375676171070
ONEWEB-0448             
1 51641U 22012V   25241.10823834  .00001718  00000+0  48843-2 0  9992
2 51641  87.8758  94.5443 0001692  81.1022 279.0297 13.10367277171049
ONEWEB-0449             
1 51642U 22012W   25241.11323400  .00000509  00000+0  14222-2 0  9999
2 51642  87.8757  94.5146 0002151  85.4619 274.6754 13.10374628171057
ONEWEB-0451             
1 51643U 22012X   25241.23425647  .00000010  00000+0 -63212-5 0  9993
2 51643  87.9035  63.9136 0001964  90.9926 269.1431 13.17647449175214
ONEWEB-0452             
1 51644U 22012Y   25241.23259142  .00000023  00000+0  25761-4 0  9998
2 51644  87.9025  63.9775 0002025  87.0569 273.0794 13.17649221175229
ONEWEB-0456             
1 51646U 22012AA  25241.12318013  .00000625  00000+0  17541-2 0  9994
2 51646  87.8762  94.4720 0001603  76.4369 283.6937 13.10373685171096
ONEWEB-0457             
1 51647U 22012AB  25241.09994783 -.00000176  00000+0 -54074-3 0  9991
2 51647  87.8762  94.5345 0001858  93.4528 266.6811 13.10376222171091
ONEWEB-0458             
1 51648U 22012AC  25241.12152534  .00000685  00000+0  19257-2 0  9992
2 51648  87.8750  94.5020 0001868  80.4998 279.6341 13.10373688171058
