[{"OBJECT_NAME":"ONEWEB-0434","OBJECT_ID":"2022-012K","EPOCH":"2025-08-29T02:52:37.372800","MEAN_MOTION":13.10373251,"ECCENTRICITY":0.00023395,"INCLINATION":87.876,"RA_OF_ASC_NODE":94.5456,"ARG_OF_PERICENTER":87.0202,"MEAN_ANOMALY":273.1193,"EPHEMERIS_TYPE":0,"CLASSIFICATION_TYPE":"U","NORAD_CAT_ID":51631,"ELEMENT_SET_NO":999,"REV_AT_EPOCH":17107,"BSTAR":0.0018443856,"MEAN_MOTION_DOT":6.57e-6,"MEAN_MOTION_DDOT":0},{"OBJECT_NAME":"ONEWEB-0435","OBJECT_ID":"2022-012L","EPOCH":"2025-08-29T03:04:33.324672","MEAN_MOTION":13.10372256,"ECCENTRICITY":0.00016372,"INCLINATION":87.8755,"RA_OF_ASC_NODE":94.5359,"ARG_OF_PERICENTER":68.7972,"MEAN_ANOMALY":291.333,"EPHEMERIS_TYPE":0,"CLASSIFICATION_TYPE":"U","NORAD_CAT_ID":51632,"ELEMENT_SET_NO":999,"REV_AT_EPOCH":17106,"BSTAR":0.0018608938,"MEAN_MOTION_DOT":6.62e-6,"MEAN_MOTION_DDOT":0},{"OBJECT_NAME":"ONEWEB-0436","OBJECT_ID":"2022-012M","EPOCH":"2025-08-29T05:42:12.313728","MEAN_MOTION":13.17649168,"ECCENTRICITY":0.00015853,"INCLINATION":87.9027,"RA_OF_ASC_NODE":63.9217,"ARG_OF_PERICENTER":83.7016,"MEAN_ANOMALY":276.4296,"EPHEMERIS_TYPE":0,"CLASSIFICATION_TYPE":"U","NORAD_CAT_ID":51633,"ELEMENT_SET_NO":999,"REV_AT_EPOCH":17523,"BSTAR":-0.00033643244,"MEAN_MOTION_DOT":-1.18e-6,"MEAN_MOTION_DDOT":0},{"OBJECT_NAME":"ONEWEB-0438","OBJECT_ID":"2022-012N","EPOCH":"2025-08-29T02:40:37.846560","MEAN_MOTION":13.10376895,"ECCENTRICITY":0.00018638,"INCLINATION":87.8761,"RA_OF_ASC_NODE":94.5401,"ARG_OF_PERICENTER":84.5784,"MEAN_ANOMALY":275.5556,"EPHEMERIS_TYPE":0,"CLASSIFICATION_TYPE":"U","NORAD_CAT_ID":51634,"ELEMENT_SET_NO":999,"REV_AT_EPOCH":17109,"BSTAR":0.0011493932,"MEAN_MOTION_DOT":4.14e-6,"MEAN_MOTION_DDOT":0},{"OBJECT_NAME":"ONEWEB-0439","OBJECT_ID":"2022-012P","EPOCH":"2025-08-29T00:55:27.682176","MEAN_MOTION":13.10376104,"ECCENTRICITY":0.00017413,"INCLINATION":87.8761,"RA_OF_ASC_NODE":94.543,"ARG_OF_PERICENTER":79.9977,"MEAN_ANOMALY":280.1346,"EPHEMERIS_TYPE":0,"CLASSIFICATION_TYPE":"U","NORAD_CAT_ID":51635,"ELEMENT_SET_NO":999,"REV_AT_EPOCH":17106,"BSTAR":0.0015455545,"MEAN_MOTION_DOT":5.52e-6,"MEAN_MOTION_DDOT":0},{"OBJECT_NAME":"ONEWEB-0442","OBJECT_ID":"2022-012Q","EPOCH":"2025-08-29T01:52:34.441824","MEAN_MOTION":13.17647564,"ECCENTRICITY":0.00021951,"INCLINATION":87.9024,"RA_OF_ASC_NODE":64.0074,"ARG_OF_PERICENTER":102.7411,"MEAN_ANOMALY":257.3966,"EPHEMERIS_TYPE":0,"CLASSIFICATION_TYPE":"U","NORAD_CAT_ID":51636,"ELEMENT_SET_NO":999,"REV_AT_EPOCH":17520,"BSTAR":-0.00011353533,"MEAN_MOTION_DOT":-3.1e-7,"MEAN_MOTION_DDOT":0},{"OBJECT_NAME":"ONEWEB-0443","OBJECT_ID":"2022-012R","EPOCH":"2025-08-29T05:59:12.710688","MEAN_MOTION":13.17648261,"ECCENTRICITY":0.00020514,"INCLINATION":87.9021,"RA_OF_ASC_NODE":63.9814,"ARG_OF_PERICENTER":85.9663,"MEAN_ANOMALY":274.1703,"EPHEMERIS_TYPE":0,"CLASSIFICATION_TYPE":"U","NORAD_CAT_ID":51637,"ELEMENT_SET_NO":999,"REV_AT_EPOCH":17527,"BSTAR":0.00017732263,"MEAN_MOTION_DOT":8.2e-7,"MEAN_MOTION_DDOT":0},{"OBJECT_NAME":"ONEWEB-0444","OBJECT_ID":"2022-012S","EPOCH":"2025-08-29T02:31:05.434464","MEAN_MOTION":13.10375389,"ECCENTRICITY":0.0001745,"INCLINATION":87.876,"RA_OF_ASC_NODE":94.5303,"ARG_OF_PERICENTER":77.1614,"MEAN_ANOMALY":282.9709,"EPHEMERIS_TYPE":0,"CLASSIFICATION_TYPE":"U","NORAD_CAT_ID":51638,"ELEMENT_SET_NO":999,"REV_AT_EPOCH":17108,"BSTAR":8.2910081e-5,"MEAN_MOTION_DOT":4.2e-7,"MEAN_MOTION_DDOT":0},{"OBJECT_NAME":"ONEWEB-0445","OBJECT_ID":"2022-012T","EPOCH":"2025-08-29T03:02:10.579776","MEAN_MOTION":13.10370385,"ECCENTRICITY":0.00016559,"INCLINATION":87.8758,"RA_OF_ASC_NODE":94.4781,"ARG_OF_PERICENTER":88.8129,"MEAN_ANOMALY":271.3188,"EPHEMERIS_TYPE":0,"CLASSIFICATION_TYPE":"U","NORAD_CAT_ID":51639,"ELEMENT_SET_NO":999,"REV_AT_EPOCH":17109,"BSTAR":0.0017955571,"MEAN_MOTION_DOT":6.39e-6,"MEAN_MOTION_DDOT":0},{"OBJECT_NAME":"ONEWEB-0446","OBJECT_ID":"2022-012U","EPOCH":"2025-08-29T02:28:40.115712","MEAN_MOTION":13.10375676,"ECCENTRICITY":0.00015376,"INCLINATION":87.876,"RA_OF_ASC_NODE":94.5458,"ARG_OF_PERICENTER":88.5868,"MEAN_ANOMALY":271.5435,"EPHEMERIS_TYPE":0,"CLASSIFICATION_TYPE":"U","NORAD_CAT_ID":51640,"ELEMENT_SET_NO":999,"REV_AT_EPOCH":17107,"BSTAR":-0.00050650313,"MEAN_MOTION_DOT":-1.64e-6,"MEAN_MOTION_DDOT":0},{"OBJECT_NAME":"ONEWEB-0448","OBJECT_ID":"2022-012V","EPOCH":"2025-08-29T02:35:51.792576","MEAN_MOTION":13.10367277,"ECCENTRICITY":0.00016926,"INCLINATION":87.8758,"RA_OF_ASC_NODE":94.5443,"ARG_OF_PERICENTER":81.1022,"MEAN_ANOMALY":279.0297,"EPHEMERIS_TYPE":0,"CLASSIFICATION_TYPE":"U","NORAD_CAT_ID":51641,"ELEMENT_SET_NO":999,"REV_AT_EPOCH":17104,"BSTAR":0.0048842768,"MEAN_MOTION_DOT":1.718e-5,"MEAN_MOTION_DDOT":0},{"OBJECT_NAME":"ONEWEB-0449","OBJECT_ID":"2022-012W","EPOCH":"2025-08-29T02:43:03.417600","MEAN_MOTION":13.10374628,"ECCENTRICITY":0.00021514,"INCLINATION":87.8757,"RA_OF_ASC_NODE":94.5146,"ARG_OF_PERICENTER":85.4619,"MEAN_ANOMALY":274.6754,"EPHEMERIS_TYPE":0,"CLASSIFICATION_TYPE":"U","NORAD_CAT_ID":51642,"ELEMENT_SET_NO":999,"REV_AT_EPOCH":17105,"BSTAR":0.001422154,"MEAN_MOTION_DOT":5.09e-6,"MEAN_MOTION_DDOT":0},{"OBJECT_NAME":"ONEWEB-0451","OBJECT_ID":"2022-012X","EPOCH":"2025-08-29T05:37:19.759008","MEAN_MOTION":13.17647449,"ECCENTRICITY":0.00019647,"INCLINATION":87.9035,"RA_OF_ASC_NODE":63.9136,"ARG_OF_PERICENTER":90.9926,"MEAN_ANOMALY":269.1431,"EPHEMERIS_TYPE":0,"CLASSIFICATION_TYPE":"U","NORAD_CAT_ID":51643,"ELEMENT_SET_NO":999,"REV_AT_EPOCH":17521,"BSTAR":-6.321161e-6,"MEAN_MOTION_DOT":1.0e-7,"MEAN_MOTION_DDOT":0},{"OBJECT_NAME":"ONEWEB-0452","OBJECT_ID":"2022-012Y","EPOCH":"2025-08-29T05:34:55.898688","MEAN_MOTION":13.17649221,"ECCENTRICITY":0.00020258,"INCLINATION":87.9025,"RA_OF_ASC_NODE":63.9775,"ARG_OF_PERICENTER":87.0569,"MEAN_ANOMALY":273.0794,"EPHEMERIS_TYPE":0,"CLASSIFICATION_TYPE":"U","NORAD_CAT_ID":51644,"ELEMENT_SET_NO":999,"REV_AT_EPOCH":17522,"BSTAR":2.5760789e-5,"MEAN_MOTION_DOT":2.3e-7,"MEAN_MOTION_DDOT":0},{"OBJECT_NAME":"ONEWEB-0456","OBJECT_ID":"2022-012AA","EPOCH":"2025-08-29T02:57:22.763232","MEAN_MOTION":13.10373685,"ECCENTRICITY":0.0001603,"INCLINATION":87.8762,"RA_OF_ASC_NODE":94.472,"ARG_OF_PERICENTER":76.4369,"MEAN_ANOMALY":283.6937,"EPHEMERIS_TYPE":0,"CLASSIFICATION_TYPE":"U","NORAD_CAT_ID":51646,"ELEMENT_SET_NO":999,"REV_AT_EPOCH":17109,"BSTAR":0.0017541408,"MEAN_MOTION_DOT":6.25e-6,"MEAN_MOTION_DDOT":0},{"OBJECT_NAME":"ONEWEB-0457","OBJECT_ID":"2022-012AB","EPOCH":"2025-08-29T02:23:55.492512","MEAN_MOTION":13.10376222,"ECCENTRICITY":0.00018584,"INCLINATION":87.8762,"RA_OF_ASC_NODE":94.5345,"ARG_OF_PERICENTER":93.4528,"MEAN_ANOMALY":266.6811,"EPHEMERIS_TYPE":0,"CLASSIFICATION_TYPE":"U","NORAD_CAT_ID":51647,"ELEMENT_SET_NO":999,"REV_AT_EPOCH":17109,"BSTAR":-0.00054074216,"MEAN_MOTION_DOT":-1.76e-6,"MEAN_MOTION_DDOT":0},{"OBJECT_NAME":"ONEWEB-0458","OBJECT_ID":"2022-012AC","EPOCH":"2025-08-29T02:54:59.789376","MEAN_MOTION":13.10373688,"ECCENTRICITY":0.0001868,"INCLINATION":87.875,"RA_OF_ASC_NODE":94.502,"ARG_OF_PERICENTER":80.4998,"MEAN_ANOMALY":279.6341,"EPHEMERIS_TYPE":0,"CLASSIFICATION_TYPE":"U","NORAD_CAT_ID":51648,"ELEMENT_SET_NO":999,"REV_AT_EPOCH":17105,"BSTAR":0.001925718,"MEAN_MOTION_DOT":6.85e-6,"MEAN_MOTION_DDOT":0}]
